OBJECT_NAME,OBJECT_ID,EPOCH,MEAN_MOTION,ECCENTRICITY,INCLINATION,RA_OF_ASC_NODE,ARG_OF_PERICENTER,MEAN_ANOMALY,EPHEMERIS_TYPE,CLASSIFICATION_TYPE,NORAD_CAT_ID,ELEMENT_SET_NO,REV_AT_EPOCH,BSTAR,MEAN_MOTION_DOT,MEAN_MOTION_DDOT
HORS 1,2023-091Y,2026-07-04T14:36:09.636768,15.27043577,.00092919,97.5053,249.2844,40.8546,319.3387,0,U,57188,999,16697,.63453624E-3,.16803E-3,0
VIZARD-METEO (RS38S),2023-091Z,2026-07-04T11:21:29.523168,15.36596660,.00067011,97.5079,255.3105,21.3484,338.8038,0,U,57189,999,16734,.74730134E-3,.26696E-3,0
SITRO-AIS 6 (CHIRKIN),2023-091AC,2026-07-04T14:54:23.580864,15.26286786,.0012241,97.5052,248.7159,51.9047,308.3293,0,U,57192,999,16694,.76979039E-3,.19966E-3,0
SITRO-AIS 8 (ANOKHIN),2023-091AD,2026-07-04T03:08:21.463872,15.32607386,.00106462,97.5045,250.8532,46.1829,314.0291,0,U,57193,999,16704,.60599E-3,.1906E-3,0
SITRO-AIS 7 (FARTUSHNIY),2023-091AE,2026-07-04T15:04:07.051296,15.25966494,.00121851,97.5050,248.5384,53.0699,307.1654,0,U,57194,999,16693,.74770962E-3,.19203E-3,0
AVION KALUGA 650,2023-091AF,2026-07-04T14:27:32.796288,15.20550206,.00113955,97.5075,245.1095,56.4013,303.8309,0,U,57195,999,16667,.45102105E-3,.9823E-4,0
HORS 2,2023-091AG,2026-07-04T14:27:33.727680,15.32358064,.00079852,97.5075,252.8736,33.1096,327.0644,0,U,57196,999,16719,.86845141E-3,.27145E-3,0
A-SEANSAT-PG1,2023-091AH,2026-07-04T10:57:01.185408,15.37579588,.00067808,97.5068,255.4122,29.6576,330.5051,0,U,57197,999,16736,.75454567E-3,.27828E-3,0
SITRO-AIS 10 (BURDAEV),2023-091AK,2026-07-04T03:43:26.443488,15.39268228,.00059643,97.5070,256.1095,24.9321,335.2211,0,U,57199,999,16737,.68168557E-3,.26543E-3,0
SITRO-AIS 9 (SHCHUKIN),2023-091AM,2026-07-04T04:29:20.991264,15.38765397,.0006215,97.5068,255.8587,24.8544,335.2999,0,U,57201,999,16736,.6871276E-3,.2632E-3,0
UTMN 2 (RS27S),2023-091AP,2026-07-04T15:04:14.163744,15.32503952,.00078674,97.5073,253.0947,28.5017,331.6653,0,U,57203,999,16721,.80856847E-3,.25376E-3,0
SITRO-AIS 12 (SMIRENNIY),2023-091AQ,2026-07-04T15:06:32.779584,15.39097328,.00056907,97.5079,256.7899,17.2148,342.9289,0,U,57204,999,16745,.98280973E-3,.38147E-3,0
SITRO-AIS 11 (SHEFFER),2023-091AU,2026-07-04T15:18:51.001056,15.39533113,.00055731,97.5076,257.0564,17.1589,342.9844,0,U,57208,999,16747,.10594845E-2,.41739E-3,0
H2SAT (HEINRICH HERTZ),2023-093A,2026-07-02T08:51:08.078400,1.00270532,.0001078,0.0305,96.5420,16.6933,300.6646,0,U,57213,999,1106,0,.12E-6,0
KUZGTU 1 (RS47S),2023-091AV,2026-07-04T15:02:12.204960,15.30286863,.00111861,97.5049,250.2879,42.7073,317.5035,0,U,57217,999,16704,.82758173E-3,.24264E-3,0
QIANKUN-1,2023-103B,2026-07-02T02:37:27.768288,16.07677687,.0035896,96.1427,226.8993,143.2789,217.0966,0,U,57422,999,16969,.18856E-4,.16028E-3,.17592E-5
FENGYUN 3F,2023-111A,2026-07-04T14:10:21.212256,14.19942185,.00014677,98.6829,255.2745,81.6137,278.5206,0,U,57490,999,15133,.55845338E-4,.75E-6,0
HJ-2F,2023-116A,2026-07-04T14:29:58.717248,15.22579969,.00077529,97.3846,190.5215,355.5090,4.6076,0,U,57519,999,16140,.51638932E-3,.11942E-3,0
XRISM,2023-137A,2026-07-04T13:06:56.336832,15.12620129,.00077765,31.0014,247.1450,139.1383,220.9840,0,U,57800,999,15549,.38160053E-3,.6937E-4,0
METEOR-M2 4,2024-039A,2026-07-04T15:04:40.532160,14.22431382,.00080923,98.7019,144.7077,115.0884,245.1134,0,U,59051,999,12174,.34366336E-4,.33E-6,0
GRBBETA,2024-128C,2026-07-04T08:13:11.743392,15.06749901,.00384788,61.9890,156.0715,138.2511,222.1530,0,U,60237,999,10885,.33299077E-3,.4844E-4,0
TRANSPORTER-11 OBJECT A,2024-149A,2026-07-03T19:09:01.772352,15.33184121,.00042411,97.3727,264.6782,144.8351,215.3172,0,U,60468,999,10460,.32000436E-3,.10187E-3,0
WARATAH SEED-1,2024-149B,2026-07-04T12:04:59.146176,15.36405944,.00027221,97.3681,266.0988,141.4990,218.6449,0,U,60469,999,10477,.74769123E-3,.26532E-3,0
PHISAT 2,2024-149C,2026-07-04T11:54:30.002112,15.31311108,.00025709,97.3751,264.6185,143.5963,216.5453,0,U,60470,999,10464,.47710422E-3,.14364E-3,0
LEMUR-2-TOMATOKECHUP,2024-149D,2026-07-04T11:58:44.494176,15.36409366,.00028039,97.3793,267.5937,142.1058,218.0383,0,U,60471,999,10482,.60014404E-3,.21268E-3,0
CONNECTA IOT-1,2024-149E,2026-07-03T17:05:09.506976,15.23668982,.00017881,97.3752,260.7250,165.8477,194.2811,0,U,60472,999,10431,.20370813E-3,.4815E-4,0
LOPEN,2024-149F,2026-07-03T23:02:58.528032,15.40180798,.00021332,97.3774,268.4642,153.0090,207.1268,0,U,60473,999,10484,.4638615E-3,.18556E-3,0
ROCK,2024-149G,2026-07-04T04:57:58.940352,15.40183022,.00024688,97.3769,268.7278,152.9930,207.1445,0,U,60474,999,10488,.50245722E-3,.20113E-3,0
CONNECTA IOT-3,2024-149H,2026-07-04T10:55:59.922624,15.23690148,.0002937,97.3727,261.2041,172.1966,187.9317,0,U,60475,999,10443,.22446481E-3,.5317E-4,0
